NORAD_CAT_ID,OBJECT_NAME,OBJECT_TYPE,EPOCH,MEAN_MOTION,ECCENTRICITY,INCLINATION,RA_OF_ASC_NODE,ARG_OF_PERICENTER,MEAN_ANOMALY,BSTAR,MEAN_MOTION_DOT,MEAN_MOTION_DDOT,TLE_LINE0,TLE_LINE1,TLE_LINE2,SEMIMAJOR_AXIS,PERIOD,APOGEE,PERIGEE,DECAYED
52132.0,STARLINK-3718,PAYLOAD,2024-05-28 20:49:03,15.08819699,0.0001571,53.218,106.2883,109.617,250.4992,0.0003271,4.919e-05,0.0,0 STARLINK-3718,1 52132U 22029AW  24149.86739762  .00004919  00000-0  32710-3 0  9995,2 52132  53.2180 106.2883 0001571 109.6170 250.4992 15.08819699122833,6917.942,95.439,540.894,538.721,0.0
52132.0,STARLINK-3718,PAYLOAD,2024-05-29 04:45:58,15.08845811,0.0001511,53.2176,104.8006,102.1134,258.0027,-5.7204e-05,-1.198e-05,0.0,0 STARLINK-3718,1 52132U 22029AW  24150.19858804 -.00001198  00000-0 -57204-4 0  9996,2 52132  53.2176 104.8006 0001511 102.1134 258.0027 15.08845811122884,6917.863,95.437,540.773,538.682,0.0
52132.0,STARLINK-3718,PAYLOAD,2024-05-29 06:21:21,15.08845865,0.0001508,53.2176,104.5031,102.1499,257.9662,-5.6673e-05,-1.19e-05,0.0,0 STARLINK-3718,1 52132U 22029AW  24150.26482764 -.00001190  00000-0 -56673-4 0  9993,2 52132  53.2176 104.5031 0001508 102.1499 257.9662 15.08845865122892,6917.862,95.437,540.771,538.684,0.0
52132.0,STARLINK-3718,PAYLOAD,2024-05-30 03:01:21,15.08843228,0.0001412,53.2179,100.6379,94.4233,265.692,8.0767e-05,9.98e-06,0.0,0 STARLINK-3718,1 52132U 22029AW  24151.12594308  .00000998  00000-0  80767-4 0  9991,2 52132  53.2179 100.6379 0001412  94.4233 265.6920 15.08843228123020,6917.871,95.437,540.712,538.759,0.0
52132.0,STARLINK-3718,PAYLOAD,2024-05-31 01:16:45,15.08841555,0.0001321,53.2179,96.4747,93.9464,266.1679,2.8745e-05,1.7e-06,0.0,0 STARLINK-3718,1 52132U 22029AW  24152.05330465  .00000170  00000-0  28745-4 0  9996,2 52132  53.2179  96.4747 0001321  93.9464 266.1679 15.08841555123163,6917.876,95.437,540.654,538.827,0.0
52132.0,STARLINK-3718,PAYLOAD,2024-05-31 06:02:54,15.08841693,0.0001323,53.2179,95.5827,95.1625,264.9518,2.9756e-05,1.86e-06,0.0,0 STARLINK-3718,1 52132U 22029AW  24152.25202427  .00000186  00000-0  29756-4 0  9994,2 52132  53.2179  95.5827 0001323  95.1625 264.9518 15.08841693123191,6917.875,95.437,540.655,538.825,0.0
52132.0,STARLINK-3718,PAYLOAD,2024-06-01 02:42:55,15.08838045,0.0001393,53.2184,91.7185,92.1919,267.9233,8.5738e-06,-1.51e-06,0.0,0 STARLINK-3718,1 52132U 22029AW  24153.11314733 -.00000151  00000-0  85738-5 0  9990,2 52132  53.2184  91.7185 0001393  92.1919 267.9233 15.08838045123321,6917.886,95.438,540.715,538.788,0.0
52132.0,STARLINK-3718,PAYLOAD,2024-06-01 05:53:42,15.08842021,0.0001331,53.2178,91.1236,92.1326,267.9819,-3.0444e-05,-7.72e-06,0.0,0 STARLINK-3718,1 52132U 22029AW  24153.24562612 -.00000772  00000-0 -30444-4 0  9998,2 52132  53.2178  91.1236 0001331  92.1326 267.9819 15.08842021123340,6917.874,95.437,540.66,538.818,0.0
52132.0,STARLINK-3718,PAYLOAD,2024-06-02 02:33:43,15.08814481,0.0001227,53.2178,87.2587,99.4358,260.6773,0.00035129,5.303e-05,0.0,0 STARLINK-3718,1 52132U 22029AW  24154.10675511  .00005303  00000-0  35129-3 0  9994,2 52132  53.2178  87.2587 0001227  99.4358 260.6773 15.08814481123476,6917.958,95.439,540.672,538.975,0.0
52132.0,STARLINK-3718,PAYLOAD,2024-06-02 12:06:01,15.08844766,0.0001236,53.2179,85.4741,91.6043,268.5091,8.1915e-05,1.016e-05,0.0,0 STARLINK-3718,1 52132U 22029AW  24154.50418215  .00001016  00000-0  81915-4 0  9996,2 52132  53.2179  85.4741 0001236  91.6043 268.5091 15.08844766123530,6917.866,95.437,540.586,538.876,0.0
52132.0,STARLINK-3718,PAYLOAD,2024-06-02 20:02:58,15.08834064,0.0001919,53.2182,83.9869,84.9238,275.1974,1.6615e-05,-2.4e-07,0.0,0 STARLINK-3718,1 52132U 22029AW  24154.83539416 -.00000024  00000-0  16615-4 0  9993,2 52132  53.2182  83.9869 0001919  84.9238 275.1974 15.08834064123586,6917.899,95.438,541.091,538.436,0.0
52132.0,STARLINK-3718,PAYLOAD,2024-06-03 03:59:54,15.08831755,0.0001394,53.2195,82.5018,94.8829,265.2323,-4.8491e-06,-3.65e-06,0.0,0 STARLINK-3718,1 52132U 22029AW  24155.16659757 -.00000365  00000-0 -48491-5 0  9998,2 52132  53.2195  82.5018 0001394  94.8829 265.2323 15.08831755123632,6917.906,95.438,540.735,538.806,0.0
52132.0,STARLINK-3718,PAYLOAD,2024-06-04 03:50:40,15.0884644,0.0001387,53.2197,78.042,96.7089,263.4061,0.00011143,1.486e-05,0.0,0 STARLINK-3718,1 52132U 22029AW  24156.16018738  .00001486  00000-0  11143-3 0  9992,2 52132  53.2197  78.0420 0001387  96.7089 263.4061 15.08846440123784,6917.861,95.437,540.685,538.766,0.0
52132.0,STARLINK-3718,PAYLOAD,2024-06-04 11:47:34,15.08862293,0.000129,53.2183,76.5513,71.6137,288.4996,0.00017671,2.527e-05,0.0,0 STARLINK-3718,1 52132U 22029AW  24156.49137398  .00002527  00000-0  17671-3 0  9991,2 52132  53.2183  76.5513 0001290  71.6137 288.4996 15.08862293123838,6917.812,95.436,540.57,538.785,0.0
52132.0,STARLINK-3718,PAYLOAD,2024-06-04 18:09:07,15.08848838,0.0002757,53.2181,75.364,79.9318,280.1985,0.00028714,4.286e-05,0.0,0 STARLINK-3718,1 52132U 22029AW  24156.75634145  .00004286  00000-0  28714-3 0  9996,2 52132  53.2181  75.3640 0002757  79.9318 280.1985 15.08848838123875,6917.853,95.437,541.626,537.811,0.0
52132.0,STARLINK-3718,PAYLOAD,2024-06-04 22:55:18,15.08830068,0.0001457,53.22,74.4742,90.6583,269.4576,9.2803e-05,1.189e-05,0.0,0 STARLINK-3718,1 52132U 22029AW  24156.95507777  .00001189  00000-0  92803-4 0  9998,2 52132  53.2200  74.4742 0001457  90.6583 269.4576 15.08830068123906,6917.911,95.438,540.784,538.768,0.0
52132.0,STARLINK-3718,PAYLOAD,2024-06-05 03:41:27,15.08837702,0.0001398,53.2192,73.5802,84.5044,275.6107,0.00010806,1.432e-05,0.0,0 STARLINK-3718,1 52132U 22029AW  24157.15379426  .00001432  00000-0  10806-3 0  9992,2 52132  53.2192  73.5802 0001398  84.5044 275.6107 15.08837702123935,6917.887,95.438,540.72,538.785,0.0
52132.0,STARLINK-3718,PAYLOAD,2024-06-05 11:38:22,15.08851136,0.0001373,53.2192,72.0952,92.2623,267.8526,0.00015339,2.155e-05,0.0,0 STARLINK-3718,1 52132U 22029AW  24157.48498394  .00002155  00000-0  15339-3 0  9993,2 52132  53.2192  72.0952 0001373  92.2623 267.8526 15.08851136123987,6917.846,95.437,540.661,538.762,0.0
52132.0,STARLINK-3718,PAYLOAD,2024-06-06 03:32:14,15.08839336,0.0001417,53.2175,69.1184,88.0923,272.0232,-0.00014406,-2.58e-05,0.0,0 STARLINK-3718,1 52132U 22029AW  24158.14739208 -.00002580  00000-0 -14406-3 0  9997,2 52132  53.2175  69.1184 0001417  88.0923 272.0232 15.08839336124089,6917.882,95.438,540.728,538.767,0.0
52132.0,STARLINK-3718,PAYLOAD,2024-06-06 11:29:09,15.08854894,0.0001369,53.2181,67.6333,89.0534,271.0615,0.0001362,1.881e-05,0.0,0 STARLINK-3718,1 52132U 22029AW  24158.47858372  .00001881  00000-0  13620-3 0  9995,2 52132  53.2181  67.6333 0001369  89.0534 271.0615 15.08854894124136,6917.835,95.437,540.647,538.753,0.0
52132.0,STARLINK-3718,PAYLOAD,2024-06-07 17:41:30,15.08838692,0.0001858,53.2205,61.9829,92.515,267.6055,0.0002366,3.479e-05,0.0,0 STARLINK-3718,1 52132U 22029AW  24159.73715772  .00003479  00000-0  23660-3 0  9991,2 52132  53.2205  61.9829 0001858  92.5150 267.6055 15.08838692124324,6917.884,95.438,541.035,538.464,0.0
52132.0,STARLINK-3718,PAYLOAD,2024-06-07 22:27:39,15.08839089,0.0001795,53.2208,61.0908,94.1562,265.9635,0.00021714,3.169e-05,0.0,0 STARLINK-3718,1 52132U 22029AW  24159.93587802  .00003169  00000-0  21714-3 0  9998,2 52132  53.2208  61.0908 0001795  94.1562 265.9635 15.08839089124350,6917.883,95.438,540.99,538.506,0.0
52132.0,STARLINK-3718,PAYLOAD,2024-06-08 00:03:02,15.08839803,0.0001605,53.2162,60.7938,92.0302,268.0874,0.00022175,3.243e-05,0.0,0 STARLINK-3718,1 52132U 22029AW  24160.00211755  .00003243  00000-0  22175-3 0  9994,2 52132  53.2162  60.7938 0001605  92.0302 268.0874 15.08839803124361,6917.881,95.438,540.856,538.636,0.0
52132.0,STARLINK-3718,PAYLOAD,2024-06-08 22:18:27,15.08834759,0.0001592,53.2181,56.6277,120.4365,239.6784,9.1938e-05,1.175e-05,0.0,0 STARLINK-3718,1 52132U 22029AW  24160.92947946  .00001175  00000-0  91938-4 0  9999,2 52132  53.2181  56.6277 0001592 120.4365 239.6784 15.08834759124507,6917.896,95.438,540.863,538.66,0.0
52132.0,STARLINK-3718,PAYLOAD,2024-06-09 03:04:36,15.08836318,0.0001602,53.2174,55.7376,95.9747,264.1428,1.7447e-05,-1e-07,0.0,0 STARLINK-3718,1 52132U 22029AW  24161.12820051 -.00000010  00000-0  17447-4 0  9990,2 52132  53.2174  55.7376 0001602  95.9747 264.1428 15.08836318124535,6917.892,95.438,540.865,538.648,0.0
52132.0,STARLINK-3718,PAYLOAD,2024-06-09 22:09:14,15.08835936,0.0001375,53.2169,52.1697,97.758,262.3568,6.9777e-05,8.23e-06,0.0,0 STARLINK-3718,1 52132U 22029AW  24161.92308286  .00000823  00000-0  69777-4 0  9993,2 52132  53.2169  52.1697 0001375  97.7580 262.3568 15.08835936124651,6917.893,95.438,540.709,538.807,0.0
52132.0,STARLINK-3718,PAYLOAD,2024-06-10 09:16:55,15.08850123,0.0001281,53.2174,50.0888,91.6734,268.4405,0.0002445,3.607e-05,0.0,0 STARLINK-3718,1 52132U 22029AW  24162.38675690  .00003607  00000-0  24450-3 0  9991,2 52132  53.2174  50.0888 0001281  91.6734 268.4405 15.08850123124726,6917.849,95.437,540.601,538.828,0.0
52132.0,STARLINK-3718,PAYLOAD,2024-06-10 20:24:38,15.08831211,0.0001172,53.2164,48.0067,83.4642,276.6484,5.3933e-05,5.7e-06,0.0,0 STARLINK-3718,1 52132U 22029AW  24162.85044680  .00000570  00000-0  53933-4 0  9997,2 52132  53.2164  48.0067 0001172  83.4642 276.6484 15.08831211124799,6917.907,95.438,540.583,538.961,0.0
52132.0,STARLINK-3718,PAYLOAD,2024-06-10 22:00:01,15.0883249,0.0001219,53.2167,47.7093,85.9684,274.1448,0.00012985,1.779e-05,0.0,0 STARLINK-3718,1 52132U 22029AW  24162.91668775  .00001779  00000-0  12985-3 0  9994,2 52132  53.2167  47.7093 0001219  85.9684 274.1448 15.08832490124807,6917.903,95.438,540.612,538.925,0.0
52132.0,STARLINK-3718,PAYLOAD,2024-06-11 02:46:10,15.0884319,0.000128,53.2171,46.8188,94.1375,265.9764,0.00024954,3.686e-05,0.0,0 STARLINK-3718,1 52132U 22029AW  24163.11540295  .00003686  00000-0  24954-3 0  9991,2 52132  53.2171  46.8188 0001280  94.1375 265.9764 15.08843190124835,6917.871,95.437,540.621,538.85,0.0
